OBJECT_NAME,OBJECT_ID,EPOCH,MEAN_MOTION,ECCENTRICITY,INCLINATION,RA_OF_ASC_NODE,ARG_OF_PERICENTER,MEAN_ANOMALY,EPHEMERIS_TYPE,CLASSIFICATION_TYPE,NORAD_CAT_ID,ELEMENT_SET_NO,REV_AT_EPOCH,BSTAR,MEAN_MOTION_DOT,MEAN_MOTION_DDOT
STARLINK-37120,2026-053E,2026-06-14T13:50:15.522720,15.33446463,.00018399,97.2856,40.6980,94.7207,265.4246,0,U,68211,999,1504,.66347578E-3,.21407E-3,0
STARLINK-37117,2026-053F,2026-06-14T13:46:21.540288,15.33421472,.00017075,97.2857,40.7024,96.3084,263.8353,0,U,68212,999,1506,.46211253E-3,.14862E-3,0
STARLINK-37116,2026-053G,2026-06-14T13:42:25.666560,15.33452898,.00018562,97.2860,40.7049,94.9409,265.2045,0,U,68213,999,1506,.52231184E-3,.16829E-3,0
STARLINK-35854,2026-053H,2026-06-14T12:59:20.893056,15.33476984,.00015026,97.2862,40.7349,120.7158,239.4233,0,U,68214,999,1504,.11047761E-2,.35797E-3,0
STARLINK-36272,2026-053J,2026-06-14T13:34:35.994432,15.33445400,.00018088,97.2853,40.7079,91.6320,268.5130,0,U,68215,999,1504,.55680827E-3,.17944E-3,0
STARLINK-37014,2026-053K,2026-06-14T13:30:41.069376,15.33453163,.00019482,97.2854,40.7158,91.0023,269.1443,0,U,68216,999,1506,.82760808E-3,.26746E-3,0
STARLINK-37011,2026-053L,2026-06-14T13:26:46.064832,15.33459500,.00019595,97.2852,40.7204,87.4269,272.7198,0,U,68217,999,1506,.62602157E-3,.20199E-3,0
STARLINK-37108,2026-053M,2026-06-14T13:22:51.240864,15.33447554,.00016586,97.2853,40.7241,86.7612,273.3820,0,U,68218,999,1506,.41501137E-3,.13348E-3,0
STARLINK-37106,2026-053N,2026-06-14T13:18:56.293344,15.33451448,.00018168,97.2863,40.7269,89.2254,270.9197,0,U,68219,999,1506,.57455466E-3,.18523E-3,0
STARLINK-37030,2026-053P,2026-06-14T13:11:06.510624,15.33451892,.00019222,97.2856,40.7336,84.0171,276.1291,0,U,68220,999,1506,.53931279E-3,.1738E-3,0
STARLINK-37012,2026-053Q,2026-06-14T13:15:01.423584,15.33451892,.00019279,97.2854,40.7315,85.3349,274.8114,0,U,68221,999,1506,.5213931E-3,.16799E-3,0
STARLINK-37110,2026-053R,2026-06-14T13:07:11.442144,15.33451498,.00017515,97.2859,40.7376,93.9992,266.1451,0,U,68222,999,1506,.25247625E-3,.8086E-4,0
STARLINK-37025,2026-053S,2026-06-14T13:03:16.795296,15.33451039,.00020571,97.2850,40.7433,74.4159,285.7310,0,U,68223,999,1506,.77368572E-3,.24991E-3,0
STARLINK-36960,2026-053U,2026-06-14T12:55:26.962464,15.33450559,.00021769,97.2852,40.7517,78.7239,281.4249,0,U,68225,999,1504,.52395514E-3,.16882E-3,0
STARLINK-37038,2026-053V,2026-06-14T14:21:34.972416,15.33453367,.00019299,97.2857,40.8217,86.4061,273.7402,0,U,68226,999,1505,.74387473E-3,.24023E-3,0
STARLINK-37083,2026-053W,2026-06-14T14:25:29.912160,15.33454863,.00018932,97.2856,40.8191,86.4414,273.7046,0,U,68227,999,1504,.74624215E-3,.24102E-3,0
STARLINK-37050,2026-053X,2026-06-14T14:17:38.849856,15.33478218,.00017111,97.2861,40.8251,86.9409,273.2029,0,U,68228,999,1505,.60601318E-3,.19561E-3,0
STARLINK-37081,2026-053Y,2026-06-14T14:00:01.999872,15.33405690,.00020465,97.2843,43.7795,91.7300,8.1871,0,U,68229,999,594,.21782813E-2,.70825E-3,0
STARLINK-37100,2026-053Z,2026-06-14T14:13:45.203520,15.33451150,.00018134,97.2861,40.8296,93.0052,267.1398,0,U,68230,999,1507,.72335596E-3,.23355E-3,0
STARLINK-37104,2026-053AA,2026-06-14T14:09:50.141952,15.33451649,.00017585,97.2856,40.8327,93.7201,266.4243,0,U,68231,999,1507,.67785713E-3,.21877E-3,0
STARLINK-37027,2026-054A,2026-06-14T09:57:53.338752,15.34399817,.00012085,53.1584,200.2368,82.8745,277.2395,0,U,68232,999,1390,.41475572E-3,.13662E-3,0
STARLINK-37132,2026-054B,2026-06-14T09:10:21.105408,15.49315490,.00009258,53.1553,200.7918,82.9625,277.1489,0,U,68233,999,1389,.65528584E-3,.36173E-3,0
STARLINK-37101,2026-054C,2026-06-14T08:51:53.933472,15.49362552,.00013434,53.1579,203.5999,57.5255,302.5883,0,U,68234,999,1385,.85142786E-3,.47281E-3,0
STARLINK-36963,2026-054D,2026-06-14T09:09:33.162912,15.34385948,.00010676,53.1572,200.7423,82.6529,277.4595,0,U,68235,999,1389,.52113788E-3,.17264E-3,0
STARLINK-37127,2026-054E,2026-06-14T08:19:58.852416,15.49319705,.00010883,53.1577,203.4585,82.0201,278.0932,0,U,68236,999,1385,.11754016E-2,.65497E-3,0
STARLINK-37095,2026-054F,2026-06-14T09:06:30.923712,15.34410055,.00009505,53.1571,200.7294,86.1443,273.9668,0,U,68237,999,1389,.38110369E-3,.12526E-3,0
STARLINK-37097,2026-054G,2026-06-14T14:00:01.999872,15.34370681,.00017469,53.1576,199.3870,68.4607,175.9014,0,U,68238,999,587,.12511103E-2,.42093E-3,0
STARLINK-37096,2026-054H,2026-06-14T14:00:01.999872,15.34364087,.0001527,53.1580,199.4315,100.5484,120.4471,0,U,68239,999,593,.1318831E-2,.44396E-3,0
STARLINK-37092,2026-054J,2026-06-14T06:20:28.921632,15.49359866,.0001098,53.1585,203.6424,100.5993,259.5140,0,U,68240,999,1384,.10474E-2,.58342E-3,0
STARLINK-37094,2026-054K,2026-06-14T09:10:58.909728,15.30185763,.00012728,53.1588,207.9451,76.0131,284.1011,0,U,68241,999,1379,.31192514E-3,.8886E-4,0
