STARLINK-37120          
1 68211U 26053E   26165.57656855  .00021407  00000+0  66348-3 0  9994
2 68211  97.2856  40.6980 0001839  94.7207 265.4246 15.33446463 15042
STARLINK-37117          
1 68212U 26053F   26165.57386042  .00014862  00000+0  46211-3 0  9997
2 68212  97.2857  40.7024 0001707  96.3084 263.8353 15.33421472 15065
STARLINK-37116          
1 68213U 26053G   26165.57113040  .00016829  00000+0  52231-3 0  9998
2 68213  97.2860  40.7049 0001856  94.9409 265.2045 15.33452898 15067
STARLINK-35854          
1 68214U 26053H   26165.54121404  .00035797  00000+0  11048-2 0  9994
2 68214  97.2862  40.7349 0001502 120.7158 239.4233 15.33476984 15042
STARLINK-36272          
1 68215U 26053J   26165.56569438  .00017944  00000+0  55681-3 0  9996
2 68215  97.2853  40.7079 0001808  91.6320 268.5130 15.33445400 15047
STARLINK-37014          
1 68216U 26053K   26165.56297534  .00026746  00000+0  82761-3 0  9991
2 68216  97.2854  40.7158 0001948  91.0023 269.1443 15.33453163 15067
STARLINK-37011          
1 68217U 26053L   26165.56025538  .00020199  00000+0  62602-3 0  9993
2 68217  97.2852  40.7204 0001959  87.4269 272.7198 15.33459500 15069
STARLINK-37108          
1 68218U 26053M   26165.55753751  .00013348  00000+0  41501-3 0  9991
2 68218  97.2853  40.7241 0001658  86.7612 273.3820 15.33447554 15067
STARLINK-37106          
1 68219U 26053N   26165.55481821  .00018523  00000+0  57455-3 0  9993
2 68219  97.2863  40.7269 0001816  89.2254 270.9197 15.33451448 15062
STARLINK-37030          
1 68220U 26053P   26165.54938091  .00017380  00000+0  53931-3 0  9995
2 68220  97.2856  40.7336 0001922  84.0171 276.1291 15.33451892 15066
STARLINK-37012          
1 68221U 26053Q   26165.55209981  .00016799  00000+0  52139-3 0  9998
2 68221  97.2854  40.7315 0001927  85.3349 274.8114 15.33451892 15067
STARLINK-37110          
1 68222U 26053R   26165.54666021  .00008086  00000+0  25248-3 0  9991
2 68222  97.2859  40.7376 0001751  93.9992 266.1451 15.33451498 15064
STARLINK-37025          
1 68223U 26053S   26165.54394439  .00024991  00000+0  77369-3 0  9997
2 68223  97.2850  40.7433 0002057  74.4159 285.7310 15.33451039 15061
STARLINK-36960          
1 68225U 26053U   26165.53850651  .00016882  00000+0  52396-3 0  9994
2 68225  97.2852  40.7517 0002176  78.7239 281.4249 15.33450559 15044
STARLINK-37038          
1 68226U 26053V   26165.59832144  .00024023  00000+0  74387-3 0  9998
2 68226  97.2857  40.8217 0001929  86.4061 273.7402 15.33453367 15058
STARLINK-37083          
1 68227U 26053W   26165.60104065  .00024102  00000+0  74624-3 0  9997
2 68227  97.2856  40.8191 0001893  86.4414 273.7046 15.33454863 15046
STARLINK-37050          
1 68228U 26053X   26165.59558854  .00019561  00000+0  60601-3 0  9998
2 68228  97.2861  40.8251 0001711  86.9409 273.2029 15.33478218 15055
STARLINK-37081          
1 68229U 26053Y   26165.58335648  .00070825  00000+0  21783-2 0  9999
2 68229  97.2843  43.7795 0002046  91.7300   8.1871 15.33405690  5948
STARLINK-37100          
1 68230U 26053Z   26165.59288430  .00023355  00000+0  72336-3 0  9995
2 68230  97.2861  40.8296 0001813  93.0052 267.1398 15.33451150 15072
STARLINK-37104          
1 68231U 26053AA  26165.59016368  .00021877  00000+0  67786-3 0  9995
2 68231  97.2856  40.8327 0001758  93.7201 266.4243 15.33451649 15077
STARLINK-37027          
1 68232U 26054A   26165.41520068  .00013662  00000+0  41476-3 0  9996
2 68232  53.1584 200.2368 0001208  82.8745 277.2395 15.34399817 13903
STARLINK-37132          
1 68233U 26054B   26165.38218872  .00036173  00000+0  65529-3 0  9997
2 68233  53.1553 200.7918 0000925  82.9625 277.1489 15.49315490 13891
STARLINK-37101          
1 68234U 26054C   26165.36937423  .00047281  00000+0  85143-3 0  9992
2 68234  53.1579 203.5999 0001343  57.5255 302.5883 15.49362552 13850
STARLINK-36963          
1 68235U 26054D   26165.38163383  .00017264  00000+0  52114-3 0  9991
2 68235  53.1572 200.7423 0001067  82.6529 277.4595 15.34385948 13893
STARLINK-37127          
1 68236U 26054E   26165.34720894  .00065497  00000+0  11754-2 0  9999
2 68236  53.1577 203.4585 0001088  82.0201 278.0932 15.49319705 13854
STARLINK-37095          
1 68237U 26054F   26165.37952458  .00012526  00000+0  38110-3 0  9997
2 68237  53.1571 200.7294 0000950  86.1443 273.9668 15.34410055 13894
STARLINK-37097          
1 68238U 26054G   26165.58335648  .00042093  00000+0  12511-2 0  9995
2 68238  53.1576 199.3870 0001746  68.4607 175.9014 15.34370681  5877
STARLINK-37096          
1 68239U 26054H   26165.58335648  .00044396  00000+0  13188-2 0  9995
2 68239  53.1580 199.4315 0001527 100.5484 120.4471 15.34364087  5938
STARLINK-37092          
1 68240U 26054J   26165.26422363  .00058342  00000+0  10474-2 0  9994
2 68240  53.1585 203.6424 0001098 100.5993 259.5140 15.49359866 13843
STARLINK-37094          
1 68241U 26054K   26165.38262627  .00008886  00000+0  31193-3 0  9993
2 68241  53.1588 207.9451 0001272  76.0131 284.1011 15.30185763 13797
